NUSAT-1 (FRESCO)        
1 41557U 16033B   22104.58190940  .00014361  00000+0  45328-3 0  9999
2 41557  97.3838 202.2676 0010765 239.7785 229.4673 15.32900348327591
BEESAT-4                
1 41619U 16040W   22103.70149551  .00013690  00000+0  48575-3 0  9992
2 41619  97.2255 156.1233 0009043 356.8283   3.2899 15.29135875310826
CAS-2T & KS-1Q          
1 41847U 16066G   22104.42257877  .00000897  00000+0  14349-3 0  9991
2 41847  98.5566 169.1439 0364931  41.5318 321.2991 14.38486285285142
NAYIF-1 (EO-88)         
1 42017U 17008BX  22103.70502014  .00015730  00000+0  50562-3 0  9993
2 42017  97.2755 170.8442 0006793 118.0549 242.1381 15.32326216287155
ZHUHAI-1 02 (CAS-4B)    
1 42759U 17034B   22104.36550314  .00004934  00000+0  30007-3 0  9990
2 42759  43.0191 325.8140 0009623 251.1531 278.1215 15.11354039266651
ZHUHAI-1 01 (CAS-4A)    
1 42761U 17034D   22104.57967985  .00004947  00000+0  30007-3 0  9996
2 42761  43.0191 323.4668 0009771 256.1421 143.8443 15.11443188266699
MAX VALIER SAT          
1 42778U 17036P   22103.68566928  .00007980  00000+0  31468-3 0  9991
2 42778  97.2144 147.0376 0011285 186.2474 173.8626 15.25763700267020
RADFXSAT (FOX-1B)       
1 43017U 17073E   22104.19411625  .00005063  00000+0  38368-3 0  9995
2 43017  97.6829   1.0071 0251694  38.4975 323.3896 14.80811459237603
FOX-1D (AO-92)          
1 43137U 18004AC  22103.75150440  .00010070  00000+0  37147-3 0  9997
2 43137  97.3726 179.5461 0007263 222.3060 137.7620 15.27954216236469
DIWATA-2B               
1 43678U 18084H   22104.27265267  .00001718  00000+0  17493-3 0  9998
2 43678  97.9589 236.8324 0010973 132.3026 227.9118 14.92037832188288
ES'HAIL 2               
1 43700U 18090A   22104.14477543  .00000146  00000+0  00000+0 0  9995
2 43700   0.0197 198.4321 0002564 216.4457 225.3257  1.00270540 12623
FOX-1CLIFF (AO-95)      
1 43770U 18099N   22104.45739132  .00002702  00000+0  24510-3 0  9996
2 43770  97.6256 172.4694 0015661 128.0036 232.2602 14.96052123183440
ITASAT 1                
1 43786U 18099AE  22104.19047419  .00002260  00000+0  20478-3 0  9992
2 43786  97.6280 173.0908 0016308 122.3721 237.9081 14.96249862183447
JY1SAT (JO-97)          
1 43803U 18099AX  22103.75970876  .00002307  00000+0  20670-3 0  9991
2 43803  97.6254 172.4133 0016132 122.1011 238.1779 14.96661347183393
UWE-4                   
1 43880U 18111E   22103.73871953  .00002945  00000+0  25592-3 0  9991
2 43880  97.6719  11.1849 0012283 171.4908 188.6525 14.97710663180013
NEXUS (FO-99)           
1 43937U 19003F   22103.87360440  .00010937  00000+0  38834-3 0  9997
2 43937  97.1388 139.7871 0021804  30.0499 330.1988 15.28973482180101
PSAT2 (NO-104)          
1 44354U 19036R   22104.12096863  .00041480 -58787-5  41733-3 0  9992
2 44354  28.5265 261.5320 0258481 330.3466  28.2698 15.31614451154772
BRICSAT2 (NO-103)       
1 44355U 19036S   22104.37233598  .01062964  55981-3  13513-2 0  9993
2 44355  28.5140 128.1279 0058111 184.2365 175.7762 16.02758002156118
JAISAT-1                
1 44419U 19038F   22103.85125677  .00009081  00000+0  47214-3 0  9990
2 44419  97.6299  73.5319 0019713   2.1501 357.9812 15.16130327153265
DUCHIFAT-3              
1 44854U 19089C   22104.43873329  .00003996  00000+0  31673-3 0  9999
2 44854  36.9646 119.7053 0007028  55.3417 304.7963 15.00548624128311
CAS-6 (TO-108)          
1 44881U 19093C   22104.49083401  .00000743  00000+0  10104-3 0  9997
2 44881  97.8943 184.6158 0015951  38.8749 321.3598 14.81638319125306
RS-44 & BREEZE-KM R/B   
1 44909U 19096E   22103.84768583  .00000031  00000+0  71024-4 0  9999
2 44909  82.5172 273.1986 0218371 110.7320 251.7333 12.79713142107240
ORBITAL FACTORY 2 (OF-2)
1 45113U 19071C   22103.76384112  .00025712  00000+0  60042-3 0  9993
2 45113  51.6416  16.8660 0008362 299.1317  60.8831 15.41990565123385
HUSKYSAT-1 (HO-107)     
1 45119U 19071J   22103.47957900  .00021687  00000+0  51760-3 0  9992
2 45119  51.6420  17.9474 0008109 294.5144  65.4995 15.41438655123331
BY70-2                  
1 45857U 20042B   22104.43984905  .00008184  00000+0  11176-2 0  9996
2 45857  97.9559 181.9337 0009096 328.7398  31.3238 14.78831016 95992
SALSAT                  
1 46495U 20068K   22103.77606261  .00002883  00000+0  21164-3 0  9994
2 46495  97.7251  45.0938 0017809 133.0436 227.2284 15.04156206 84464
BY70-3                  
1 46839U 20079N   22104.53043539  .00023774  00000+0  61606-3 0  9993
2 46839  97.2032 177.5841 0006240 191.8963 280.2773 15.39010274 80400
RADFXSAT-2 (AO-109)     
1 47311U 21002C   22104.53172185  .00009486  00000+0  39756-3 0  9991
2 47311  60.6851 242.6646 0012111 240.4884 119.4996 15.24092148 68728
UVSQ-SAT                
1 47438U 21006AB  22104.15877652  .00005459  00000+0  29685-3 0  9990
2 47438  97.4445 164.5067 0013564 134.5105 225.7238 15.14804577 67541
DIY-1 (ARDUIQUBE)       
1 47963U 21022AH  22104.17041490  .00012985  00000+0  77266-3 0  9996
2 47963  97.5385   6.3610 0017784   2.6584 357.4737 15.11235045 57236
XW-3 (CAS-9)            
1 50466U 21131B   22104.24864053  .00000160  00000+0  66962-4 0  9999
2 50466  98.5825 181.5283 0003954 356.6937   3.4223 14.38464909 15680
